{"type": "FeatureCollection", "features": [ {"type": "Feature", "properties": {"norad_id": 31493, "name": "FENGYUN 1C DEB", "group": "fengyun-1c-debris", "lat": -55.72233663418207, "lon": 109.16994368415463, "alt_km": 923.9887386098699, "timestamp": "2025-12-23T11:34:48.445546+00:00", "meta": {"OBJECT_NAME": "FENGYUN 1C DEB", "OBJECT_ID": "1999-025BWG", "EPOCH": "2025-12-21T03:17:34.295136", "MEAN_MOTION": 13.92984484, "ECCENTRICITY": 0.01172359, "INCLINATION": 100.1363, "RA_OF_ASC_NODE": 301.8208, "ARG_OF_PERICENTER": 153.2709, "MEAN_ANOMALY": 207.4555, "EPHEMERIS_TYPE": 0, "CLASSIFICATION_TYPE": "U", "NORAD_CAT_ID": 31493, "ELEMENT_SET_NO": 999, "REV_AT_EPOCH": 59983, "BSTAR": 0.00067667024, "MEAN_MOTION_DOT": 8.79e-06, "MEAN_MOTION_DDOT": 0}, "tle": {"line1": "1 31493U 99025BWG 25355.13720249  .00000879  00000+0  67667-3 0  9991", "line2": "2 31493 100.1363 301.8208 0117235 153.2709 207.4555 13.92984484599838"}}, "geometry": {"type": "Point", "coordinates": [109.16994368415463, -55.72233663418207]}}, {"type": "Feature", "properties": {"norad_id": 31495, "name": "FENGYUN 1C DEB", "group": "fengyun-1c-debris", "lat": 22.678283275088617, "lon": -132.6954105741429, "alt_km": 803.6627369437492, "timestamp": "2025-12-23T11:34:48.445555+00:00", "meta": {"OBJECT_NAME": "FENGYUN 1C DEB", "OBJECT_ID": "1999-025BWJ", "EPOCH": "2025-12-20T09:32:47.149152", "MEAN_MOTION": 14.29252624, "ECCENTRICITY": 0.00255899, "INCLINATION": 99.12, "RA_OF_ASC_NODE": 227.9275, "ARG_OF_PERICENTER": 154.7696, "MEAN_ANOMALY": 205.474, "EPHEMERIS_TYPE": 0, "CLASSIFICATION_TYPE": "U", "NORAD_CAT_ID": 31495, "ELEMENT_SET_NO": 999, "REV_AT_EPOCH": 63500, "BSTAR": 0.00086082116, "MEAN_MOTION_DOT": 2.149e-05, "MEAN_MOTION_DDOT": 0}, "tle": {"line1": "1 31495U 99025BWJ 25354.39776793  .00002149  00000+0  86082-3 0  9999", "line2": "2 31495  99.1200 227.9275 0025589 154.7696 205.4740 14.29252624635009"}}, "geometry": {"type": "Point", "coordinates": [-132.6954105741429, 22.678283275088617]}}, {"type": "Feature", "properties": {"norad_id": 31497, "name": "FENGYUN 1C DEB", "group": "fengyun-1c-debris", "lat": -21.31926027868574, "lon": 157.49935239818575, "alt_km": 804.1493388957188, "timestamp": "2025-12-23T11:34:48.445564+00:00", "meta": {"OBJECT_NAME": "FENGYUN 1C DEB", "OBJECT_ID": "1999-025BWL", "EPOCH": "2025-12-20T04:29:02.353920", "MEAN_MOTION": 14.39239205, "ECCENTRICITY": 0.01673435, "INCLINATION": 98.371, "RA_OF_ASC_NODE": 337.5747, "ARG_OF_PERICENTER": 320.7302, "MEAN_ANOMALY": 96.6636, "EPHEMERIS_TYPE": 0, "CLASSIFICATION_TYPE": "U", "NORAD_CAT_ID": 31497, "ELEMENT_SET_NO": 999, "REV_AT_EPOCH": 97662, "BSTAR": 0.00018663983, "MEAN_MOTION_DOT": 6.31e-06, "MEAN_MOTION_DDOT": 0}, "tle": {"line1": "1 31497U 99025BWL 25354.18683280  .00000631  00000+0  18664-3 0  9991", "line2": "2 31497  98.3710 337.5747 0167343 320.7302  96.6636 14.39239205976625"}}, "geometry": {"type": "Point", "coordinates": [157.49935239818575, -21.31926027868574]}}, {"type": "Feature", "properties": {"norad_id": 31498, "name": "FENGYUN 1C DEB", "group": "fengyun-1c-debris", "lat": -61.346072559990276, "lon": 131.84492279883176, "alt_km": 1075.403670251003, "timestamp": "2025-12-23T11:34:48.445573+00:00", "meta": {"OBJECT_NAME": "FENGYUN 1C DEB", "OBJECT_ID": "1999-025BWM", "EPOCH": "2025-12-20T21:23:31.452864", "MEAN_MOTION": 13.77022887, "ECCENTRICITY": 0.0219158, "INCLINATION": 98.4859, "RA_OF_ASC_NODE": 325.3849, "ARG_OF_PERICENTER": 122.8448, "MEAN_ANOMALY": 239.4012, "EPHEMERIS_TYPE": 0, "CLASSIFICATION_TYPE": "U", "NORAD_CAT_ID": 31498, "ELEMENT_SET_NO": 999, "REV_AT_EPOCH": 92846, "BSTAR": 0.0012225, "MEAN_MOTION_DOT": 1.406e-05, "MEAN_MOTION_DDOT": 0}, "tle": {"line1": "1 31498U 99025BWM 25354.89133626  .00001406  00000+0  12225-2 0  9991", "line2": "2 31498  98.4859 325.3849 0219158 122.8448 239.4012 13.77022887928464"}}, "geometry": {"type": "Point", "coordinates": [131.84492279883176, -61.346072559990276]}}, {"type": "Feature", "properties": {"norad_id": 31503, "name": "FENGYUN 1C DEB", "group": "fengyun-1c-debris", "lat": 60.62917100039469, "lon": 63.606362588759886, "alt_km": 783.0301387424588, "timestamp": "2025-12-23T11:34:48.445582+00:00", "meta": {"OBJECT_NAME": "FENGYUN 1C DEB", "OBJECT_ID": "1999-025BWS", "EPOCH": "2025-12-20T20:34:28.426080", "MEAN_MOTION": 14.22622897, "ECCENTRICITY": 0.0048929, "INCLINATION": 100.0987, "RA_OF_ASC_NODE": 222.1407, "ARG_OF_PERICENTER": 163.828, "MEAN_ANOMALY": 196.4468, "EPHEMERIS_TYPE": 0, "CLASSIFICATION_TYPE": "U", "NORAD_CAT_ID": 31503, "ELEMENT_SET_NO": 999, "REV_AT_EPOCH": 64362, "BSTAR": 0.0006853, "MEAN_MOTION_DOT": 1.496e-05, "MEAN_MOTION_DDOT": 0}, "tle": {"line1": "1 31503U 99025BWS 25354.85727345  .00001496  00000+0  68530-3 0  9991", "line2": "2 31503 100.0987 222.1407 0048929 163.8280 196.4468 14.22622897643629"}}, "geometry": {"type": "Point", "coordinates": [63.606362588759886, 60.62917100039469]}}, {"type": "Feature", "properties": {"norad_id": 31507, "name": "FENGYUN 1C DEB", "group": "fengyun-1c-debris", "lat": -71.52286375563496, "lon": -176.06373741068032, "alt_km": 799.1317510328308, "timestamp": "2025-12-23T11:34:48.445591+00:00", "meta": {"OBJECT_NAME": "FENGYUN 1C DEB", "OBJECT_ID": "1999-025BWW", "EPOCH": "2025-12-22T20:20:35.134368", "MEAN_MOTION": 14.52207672, "ECCENTRICITY": 0.01174462, "INCLINATION": 98.1922, "RA_OF_ASC_NODE": 28.855, "ARG_OF_PERICENTER": 47.3279, "MEAN_ANOMALY": 129.5079, "EPHEMERIS_TYPE": 0, "CLASSIFICATION_TYPE": "U", "NORAD_CAT_ID": 31507, "ELEMENT_SET_NO": 999, "REV_AT_EPOCH": 98167, "BSTAR": 0.0004269326, "MEAN_MOTION_DOT": 1.847e-05, "MEAN_MOTION_DDOT": 0}, "tle": {"line1": "1 31507U 99025BWW 25356.84762887  .00001847  00000+0  42693-3 0  9998", "line2": "2 31507  98.1922  28.8550 0117446  47.3279 129.5079 14.52207672981672"}}, "geometry": {"type": "Point", "coordinates": [-176.06373741068032, -71.52286375563496]}}, {"type": "Feature", "properties": {"norad_id": 31508, "name": "FENGYUN 1C DEB", "group": "fengyun-1c-debris", "lat": -22.193157653463768, "lon": 110.07020833930865, "alt_km": 672.951368089095, "timestamp": "2025-12-23T11:34:48.445600+00:00", "meta": {"OBJECT_NAME": "FENGYUN 1C DEB", "OBJECT_ID": "1999-025BWX", "EPOCH": "2025-12-22T06:07:52.254624", "MEAN_MOTION": 14.62716626, "ECCENTRICITY": 0.00341369, "INCLINATION": 98.626, "RA_OF_ASC_NODE": 105.2382, "ARG_OF_PERICENTER": 295.1567, "MEAN_ANOMALY": 64.6094, "EPHEMERIS_TYPE": 0, "CLASSIFICATION_TYPE": "U", "NORAD_CAT_ID": 31508, "ELEMENT_SET_NO": 999, "REV_AT_EPOCH": 97063, "BSTAR": 0.0030278047, "MEAN_MOTION_DOT": 0.00015531, "MEAN_MOTION_DDOT": 0}, "tle": {"line1": "1 31508U 99025BWX 25356.25546591  .00015531  00000+0  30278-2 0  9996", "line2": "2 31508  98.6260 105.2382 0034136 295.1567  64.6094 14.62716626970638"}}, "geometry": {"type": "Point", "coordinates": [110.07020833930865, -22.193157653463768]}}, {"type": "Feature", "properties": {"norad_id": 31509, "name": "FENGYUN 1C DEB", "group": "fengyun-1c-debris", "lat": -66.8279074010893, "lon": 138.29853878746482, "alt_km": 946.9178989925276, "timestamp": "2025-12-23T11:34:48.445609+00:00", "meta": {"OBJECT_NAME": "FENGYUN 1C DEB", "OBJECT_ID": "1999-025BWY", "EPOCH": "2025-12-22T20:25:27.616512", "MEAN_MOTION": 13.94953044, "ECCENTRICITY": 0.02044415, "INCLINATION": 99.0242, "RA_OF_ASC_NODE": 115.886, "ARG_OF_PERICENTER": 191.0712, "MEAN_ANOMALY": 168.5915, "EPHEMERIS_TYPE": 0, "CLASSIFICATION_TYPE": "U", "NORAD_CAT_ID": 31509, "ELEMENT_SET_NO": 999, "REV_AT_EPOCH": 94103, "BSTAR": 0.0020355091, "MEAN_MOTION_DOT": 3.216e-05, "MEAN_MOTION_DDOT": 0}, "tle": {"line1": "1 31509U 99025BWY 25356.85101408  .00003216  00000+0  20355-2 0  9999", "line2": "2 31509  99.0242 115.8860 0204441 191.0712 168.5915 13.94953044941035"}}, "geometry": {"type": "Point", "coordinates": [138.29853878746482, -66.8279074010893]}}, {"type": "Feature", "properties": {"norad_id": 31510, "name": "FENGYUN 1C DEB", "group": "fengyun-1c-debris", "lat": 53.35485853111136, "lon": -171.92599574547498, "alt_km": 831.0990482896004, "timestamp": "2025-12-23T11:34:48.445617+00:00", "meta": {"OBJECT_NAME": "FENGYUN 1C DEB", "OBJECT_ID": "1999-025BWZ", "EPOCH": "2025-12-20T19:32:19.154112", "MEAN_MOTION": 14.24579723, "ECCENTRICITY": 0.0036702, "INCLINATION": 98.5531, "RA_OF_ASC_NODE": 353.8036, "ARG_OF_PERICENTER": 307.7687, "MEAN_ANOMALY": 180.91, "EPHEMERIS_TYPE": 0, "CLASSIFICATION_TYPE": "U", "NORAD_CAT_ID": 31510, "ELEMENT_SET_NO": 999, "REV_AT_EPOCH": 96602, "BSTAR": 0.00036270315, "MEAN_MOTION_DOT": 8.05e-06, "MEAN_MOTION_DDOT": 0}, "tle": {"line1": "1 31510U 99025BWZ 25354.81411058  .00000805  00000+0  36270-3 0  9995", "line2": "2 31510  98.5531 353.8036 0036702 307.7687 180.9100 14.24579723966023"}}, "geometry": {"type": "Point", "coordinates": [-171.92599574547498, 53.35485853111136]}}, {"type": "Feature", "properties": {"norad_id": 31511, "name": "FENGYUN 1C DEB", "group": "fengyun-1c-debris", "lat": -73.3846315163272, "lon": -45.816782262143455, "alt_km": 765.4217753944422, "timestamp": "2025-12-23T11:34:48.445626+00:00", "meta": {"OBJECT_NAME": "FENGYUN 1C DEB", "OBJECT_ID": "1999-025BXA", "EPOCH": "2025-12-16T16:57:53.904960", "MEAN_MOTION": 14.28101232, "ECCENTRICITY": 0.01095882, "INCLINATION": 99.069, "RA_OF_ASC_NODE": 159.5093, "ARG_OF_PERICENTER": 215.4224, "MEAN_ANOMALY": 143.9644, "EPHEMERIS_TYPE": 0, "CLASSIFICATION_TYPE": "U", "NORAD_CAT_ID": 31511, "ELEMENT_SET_NO": 999, "REV_AT_EPOCH": 95857, "BSTAR": 0.0010389411, "MEAN_MOTION_DOT": 2.707e-05, "MEAN_MOTION_DDOT": 0}, "tle": {"line1": "1 31511U 99025BXA 25350.70687390  .00002707  00000+0  10389-2 0  9999", "line2": "2 31511  99.0690 159.5093 0109588 215.4224 143.9644 14.28101232958578"}}, "geometry": {"type": "Point", "coordinates": [-45.816782262143455, -73.3846315163272]}}]}